IRIDIUM 166             
1 43570U 18061B   24353.84474714  .00000655  00000+0  22685-3 0  9992
2 43570  86.3961 284.6141 0001849  87.6144 272.5264 14.34223457335231
IRIDIUM 158             
1 43571U 18061C   24353.25488788  .00000282  00000+0  93742-4 0  9993
2 43571  86.3959 284.8703 0002085  78.8851 281.2579 14.34219552335119
IRIDIUM 165             
1 43572U 18061D   24353.28026036 -.00000113  00000+0 -47243-4 0  9991
2 43572  86.3961 284.8960 0002114  86.6048 273.5389 14.34216987335141
IRIDIUM 155             
1 43573U 18061E   24353.87011461  .00000524  00000+0  17999-3 0  9991
2 43573  86.3959 284.5451 0001844  80.1658 279.9745 14.34222115335209
IRIDIUM 154             
1 43574U 18061F   24353.36270561  .00000649  00000+0  22456-3 0  9996
2 43574  86.3963 284.8639 0002252  85.5672 274.5781 14.34220640335173
IRIDIUM 163             
1 43575U 18061G   24353.90183370  .00000120  00000+0  35931-4 0  9995
2 43575  86.3962 284.5711 0002097  80.5377 279.6055 14.34218500335223
IRIDIUM 156             
1 43576U 18061H   24353.87646904  .00000654  00000+0  22656-3 0  9990
2 43576  86.3961 284.5884 0001841  83.8644 276.2761 14.34215520335207
IRIDIUM 164             
1 43577U 18061J   24353.22951446  .00000663  00000+0  22974-3 0  9993
2 43577  86.3962 284.8905 0002153  91.8867 268.2576 14.34222381335162
